0 COSMOS 2251 DEB
1 34070U 93036KH  13282.33124079  .00001741  00000-0  61032-3 0  8975
2 34070 074.0158 148.5831 0043368 245.8590 234.3525 14.35297290243362
0 COSMOS 2251 DEB
1 34070U 93036KH  13287.00042877  .00002009  00000-0  70257-3 0  8998
2 34070 074.0152 140.0107 0043090 236.2294 240.4000 14.35309519244035
0 COSMOS 2251 DEB
1 34070U 93036KH  13289.03038772  .00002334  00000-0  81481-3 0  9007
2 34070 074.0152 136.2838 0042977 232.0347 289.4450 14.35322369244321
0 COSMOS 2251 DEB
1 34070U 93036KH  13291.59076016  .00002544  00000-0  88714-3 0  9014
2 34070 074.0153 131.5844 0042965 226.7005 199.3650 14.35331379244697
0 COSMOS 2251 DEB
1 34070U 93036KH  13293.68298484  .00002869  00000-0  99900-3 0  9021
2 34070 074.0156 127.7428 0042895 222.3632 210.3316 14.35340360244991
0 COSMOS 2251 DEB
1 34070U 93036KH  13295.70935146  .00003377  00000-0  11738-2 0  9037
2 34070 074.0159 124.0218 0042808 218.2387 240.9916 14.35350154245286
